CTC2_L_00184016-03
1 68673U 24175TQ  26070.40844907  .00000000  00000+0  00000-0 0  9999
2 68673  75.0000 180.0000 0000000   0.0000   0.0000 14.79785908    12
CTC2_L_00184016-04
1 68674U 23412YF  26070.40844907  .00000000  00000+0  00000-0 0  9993
2 68674  75.0000 180.0000 0000000   0.0000  90.0000 14.79785908    12
CTC2_L_00184017-01
1 68675U 22629IF  26070.40844907  .00000000  00000+0  00000-0 0  9993
2 68675  75.0000 192.0000 0000000   0.0000 192.0000 14.79785908    19
CTC2_L_00184017-02
1 68676U 26413WM  26070.40844907  .00000000  00000+0  00000-0 0  9999
2 68676  75.0000 192.0000 0000000   0.0000 282.0000 14.79785908    10
CTC2_L_00184017-03
1 68677U 26443NC  26070.40844907  .00000000  00000+0  00000-0 0  9993
2 68677  75.0000 192.0000 0000000   0.0000  12.0000 14.79785908    12
CTC2_L_00184017-04
1 68678U 24107MJ  26070.40844907  .00000000  00000+0  00000-0 0  9999
2 68678  75.0000 192.0000 0000000   0.0000 102.0000 14.79785908    13
CTC2_L_00184018-01
1 68679U 23804XY  26070.40844907  .00000000  00000+0  00000-0 0  9993
2 68679  75.0000 204.0000 0000000   0.0000 204.0000 14.79785908    11
CTC2_L_00184018-02
1 68680U 23493NB  26070.40844907  .00000000  00000+0  00000-0 0  9999
2 68680  75.0000 204.0000 0000000   0.0000 294.0000 14.79785908    12
CTC2_L_00184018-03
1 68681U 24308VM  26070.40844907  .00000000  00000+0  00000-0 0  9996
2 68681  75.0000 204.0000 0000000   0.0000  24.0000 14.79785908    14
CTC2_L_00184018-04
1 68682U 24223DI  26070.40844907  .00000000  00000+0  00000-0 0  9993
2 68682  75.0000 204.0000 0000000   0.0000 114.0000 14.79785908    15
CTC2_L_00184019-01
1 68683U 23881MR  26070.40844907  .00000000  00000+0  00000-0 0  9993
2 68683  75.0000 216.0000 0000000   0.0000 216.0000 14.79785908    12
CTC2_L_00184019-02
1 68684U 26180KN  26070.40844907  .00000000  00000+0  00000-0 0  9999
2 68684  75.0000 216.0000 0000000   0.0000 306.0000 14.79785908    13
CTC2_L_00184019-03
1 68685U 25949WY  26070.40844907  .00000000  00000+0  00000-0 0  9992
2 68685  75.0000 216.0000 0000000   0.0000  36.0000 14.79785908    14
CTC2_L_00184019-04
1 68686U 26607RE  26070.40844907  .00000000  00000+0  00000-0 0  9995
2 68686  75.0000 216.0000 0000000   0.0000 126.0000 14.79785908    15
CTC2_L_00184020-01
1 68687U 22837JL  26070.40844907  .00000000  00000+0  00000-0 0  9997
2 68687  75.0000 228.0000 0000000   0.0000 228.0000 14.79785908    12
CTC2_L_00184020-02
1 68688U 24536WN  26070.40844907  .00000000  00000+0  00000-0 0  9996
2 68688  75.0000 228.0000 0000000   0.0000 318.0000 14.79785908    13
CTC2_L_00184020-03
1 68689U 26956PT  26070.40844907  .00000000  00000+0  00000-0 0  9995
2 68689  75.0000 228.0000 0000000   0.0000  48.0000 14.79785908    14
CTC2_L_00184020-04
1 68690U 22587DK  26070.40844907  .00000000  00000+0  00000-0 0  9993
2 68690  75.0000 228.0000 0000000   0.0000 138.0000 14.79785908    16
CTC2_L_00184021-01
1 68691U 25842BQ  26070.40844907  .00000000  00000+0  00000-0 0  9991
2 68691  75.0000 240.0000 0000000   0.0000 240.0000 14.79785908    15
CTC2_L_00184021-02
1 68692U 23170XT  26070.40844907  .00000000  00000+0  00000-0 0  9994
2 68692  75.0000 240.0000 0000000   0.0000 330.0000 14.79785908    16
CTC2_L_00184021-03
1 68693U 26942YH  26070.40844907  .00000000  00000+0  00000-0 0  9995
2 68693  75.0000 240.0000 0000000   0.0000  60.0000 14.79785908    17
CTC2_L_00184021-04
1 68694U 26329QS  26070.40844907  .00000000  00000+0  00000-0 0  9995
2 68694  75.0000 240.0000 0000000   0.0000 150.0000 14.79785908    18
CTC2_L_00184022-01
1 68695U 23743ZY  26070.40844907  .00000000  00000+0  00000-0 0  9993
2 68695  75.0000 252.0000 0000000   0.0000 252.0000 14.79785908    15
CTC2_L_00184022-02
1 68696U 23107CW  26070.40844907  .00000000  00000+0  00000-0 0  9998
2 68696  75.0000 252.0000 0000000   0.0000 342.0000 14.79785908    16
CTC2_L_00184022-03
1 68697U 22261FP  26070.40844907  .00000000  00000+0  00000-0 0  9999
2 68697  75.0000 252.0000 0000000   0.0000  72.0000 14.79785908    17
CTC2_L_00184022-04
1 68698U 25779LZ  26070.40844907  .00000000  00000+0  00000-0 0  9997
2 68698  75.0000 252.0000 0000000   0.0000 162.0000 14.79785908    18
CTC2_L_00184023-01
1 68699U 23637ZE  26070.40844907  .00000000  00000+0  00000-0 0  9999
2 68699  75.0000 264.0000 0000000   0.0000 264.0000 14.79785908    15
CTC2_L_00184023-02
1 68700U 24183BR  26070.40844907  .00000000  00000+0  00000-0 0  9999
2 68700  75.0000 264.0000 0000000   0.0000 354.0000 14.79785908    18
CTC2_L_00184023-03
1 68701U 24652YC  26070.40844907  .00000000  00000+0  00000-0 0  9991
2 68701  75.0000 264.0000 0000000   0.0000  84.0000 14.79785908    19
CTC2_L_00184023-04
1 68702U 24219ZD  26070.40844907  .00000000  00000+0  00000-0 0  9991
2 68702  75.0000 264.0000 0000000   0.0000 174.0000 14.79785908    10
CTC2_L_00184024-01
1 68703U 25327EQ  26070.40844907  .00000000  00000+0  00000-0 0  9993
2 68703  75.0000 276.0000 0000000   0.0000 276.0000 14.79785908    17
CTC2_L_00184024-02
1 68704U 25353WU  26070.40844907  .00000000  00000+0  00000-0 0  9993
2 68704  75.0000 276.0000 0000000   0.0000   6.0000 14.79785908    19
CTC2_L_00184024-03
1 68705U 26213UA  26070.40844907  .00000000  00000+0  00000-0 0  9990
2 68705  75.0000 276.0000 0000000   0.0000  96.0000 14.79785908    19
CTC2_L_00184024-04
1 68706U 23815ZU  26070.40844907  .00000000  00000+0  00000-0 0  9996
2 68706  75.0000 276.0000 0000000   0.0000 186.0000 14.79785908    10
CTC2_L_00184025-01
1 68707U 25411TM  26070.40844907  .00000000  00000+0  00000-0 0  9991
2 68707  75.0000 288.0000 0000000   0.0000 288.0000 14.79785908    17
CTC2_L_00184025-02
1 68708U 25660LV  26070.40844907  .00000000  00000+0  00000-0 0  9998
2 68708  75.0000 288.0000 0000000   0.0000  18.0000 14.79785908    19
CTC2_L_00184025-03
1 68709U 22797CW  26070.40844907  .00000000  00000+0  00000-0 0  9997
2 68709  75.0000 288.0000 0000000   0.0000 108.0000 14.79785908    10
CTC2_L_00184025-04
1 68710U 25643SD  26070.40844907  .00000000  00000+0  00000-0 0  9992
2 68710  75.0000 288.0000 0000000   0.0000 198.0000 14.79785908    11
CTC2_L_00184026-01
1 68711U 26814GD  26070.40844907  .00000000  00000+0  00000-0 0  9994
2 68711  75.0000 300.0000 0000000   0.0000 300.0000 14.79785908    12
CTC2_L_00184026-02
1 68712U 22419KG  26070.40844907  .00000000  00000+0  00000-0 0  9992
2 68712  75.0000 300.0000 0000000   0.0000  30.0000 14.79785908    13
CTC2_L_00184026-03
1 68713U 25948OX  26070.40844907  .00000000  00000+0  00000-0 0  9993
2 68713  75.0000 300.0000 0000000   0.0000 120.0000 14.79785908    14
CTC2_L_00184026-04
1 68714U 25849DB  26070.40844907  .00000000  00000+0  00000-0 0  9994
2 68714  75.0000 300.0000 0000000   0.0000 210.0000 14.79785908    15
CTC2_L_00184027-01
1 68715U 26541ZU  26070.40844907  .00000000  00000+0  00000-0 0  9995
2 68715  75.0000 312.0000 0000000   0.0000 312.0000 14.79785908    12
CTC2_L_00184027-02
1 68716U 23557BP  26070.40844907  .00000000  00000+0  00000-0 0  9990
2 68716  75.0000 312.0000 0000000   0.0000  42.0000 14.79785908    13
CTC2_L_00184027-03
1 68717U 23347KK  26070.40844907  .00000000  00000+0  00000-0 0  9998
2 68717  75.0000 312.0000 0000000   0.0000 132.0000 14.79785908    14
CTC2_L_00184027-04
1 68718U 26891BD  26070.40844907  .00000000  00000+0  00000-0 0  9996
2 68718  75.0000 312.0000 0000000   0.0000 222.0000 14.79785908    15
CTC2_L_00184028-01
1 68719U 26459GE  26070.40844907  .00000000  00000+0  00000-0 0  9997
2 68719  75.0000 324.0000 0000000   0.0000 324.0000 14.79785908    12
CTC2_L_00184028-02
1 68720U 26017EG  26070.40844907  .00000000  00000+0  00000-0 0  9999
2 68720  75.0000 324.0000 0000000   0.0000  54.0000 14.79785908    14
CTC2_L_00184028-03
1 68721U 26498V   26070.40844907  .00000000  00000+0  00000-0 0  9993
2 68721  75.0000 324.0000 0000000   0.0000 144.0000 14.79785908    15
CTC2_L_00184028-04
1 68722U 26285HE  26070.40844907  .00000000  00000+0  00000-0 0  9998
2 68722  75.0000 324.0000 0000000   0.0000 234.0000 14.79785908    16
CTC2_L_00184029-01
1 68723U 23127UA  26070.40844907  .00000000  00000+0  00000-0 0  9991
2 68723  75.0000 336.0000 0000000   0.0000 336.0000 14.79785908    13
CTC2_L_00184029-02
1 68724U 26974VU  26070.40844907  .00000000  00000+0  00000-0 0  9995
2 68724  75.0000 336.0000 0000000   0.0000  66.0000 14.79785908    14
CTC2_L_00184029-03
1 68725U 24054BZ  26070.40844907  .00000000  00000+0  00000-0 0  9993
2 68725  75.0000 336.0000 0000000   0.0000 156.0000 14.79785908    15
CTC2_L_00184029-04
1 68726U 25910KY  26070.40844907  .00000000  00000+0  00000-0 0  9996
2 68726  75.0000 336.0000 0000000   0.0000 246.0000 14.79785908    16
CTC2_L_00184030-01
1 68727U 23822S   26070.40844907  .00000000  00000+0  00000-0 0  9997
2 68727  75.0000 348.0000 0000000   0.0000 348.0000 14.79785908    13
CTC2_L_00184030-02
1 68728U 24739SH  26070.40844907  .00000000  00000+0  00000-0 0  9996
2 68728  75.0000 348.0000 0000000   0.0000  78.0000 14.79785908    14
CTC2_L_00184030-03
1 68729U 23593UM  26070.40844907  .00000000  00000+0  00000-0 0  9994
2 68729  75.0000 348.0000 0000000   0.0000 168.0000 14.79785908    15
CTC2_L_00184030-04
1 68730U 24461NX  26070.40844907  .00000000  00000+0  00000-0 0  9991
2 68730  75.0000 348.0000 0000000   0.0000 258.0000 14.79785908    17
